PATHFINDER 1            
1 41787U 16059E   26073.57156364  .00000959  00000+0  17620-3 0  9994
2 41787  97.8179  77.1237 0029296 145.5627 214.7485 14.67528729505838
SCATSAT 1               
1 41790U 16059H   26073.59172582  .00001763  00000+0  23873-3 0  9991
2 41790  98.1295 136.3574 0054716 191.5975 168.3979 14.79282153 87602
GOKTURK 1A              
1 41875U 16073A   26073.64327328  .00000252  00000+0  58525-4 0  9992
2 41875  98.1356 329.7464 0001327  78.2730 281.8621 14.62754303495005
RESOURCESAT-2A          
1 41877U 16074A   26073.61753685  .00000433  00000+0  21783-3 0  9997
2 41877  98.7594 147.8718 0002254  24.4736 335.6548 14.21603628480869
CARTOSAT-2D             
1 41948U 17008A   26071.86645005 -.00000025  00000+0  20080-5 0  9994
2 41948  97.4226 132.9125 0004511 206.0706 154.0302 15.19280641502956
SENTINEL-2B             
1 42063U 17013A   26073.59209139  .00000455  00000+0  19037-3 0  9999
2 42063  98.5647 149.7149 0001155  94.6894 265.4420 14.30823235471111
CARTOSAT-2E             
1 42767U 17036C   26073.06902649 -.00000272  00000+0 -97461-5 0  9991
2 42767  97.4397 134.3841 0002580 284.3598  75.7351 15.19224887483702
FORMOSAT-5              
1 42920U 17049A   26073.63822586  .00000225  00000+0  68037-4 0  9992
2 42920  98.2304 151.0389 0011407  22.0828 338.0856 14.50824529452966
SENTINEL-5P             
1 42969U 17064A   26073.53860880  .00000089  00000+0  63032-4 0  9998
2 42969  98.7887  16.3601 0001079  92.8914 267.2385 14.19500600436132
SKYSAT-C11              
1 42987U 17068A   26073.48611846  .00041844  00000+0  67615-3 0  9996
2 42987  97.4205 218.6309 0000441  79.5811 280.5492 15.52752003468523
SKYSAT-C10              
1 42988U 17068B   26073.30174538  .00013494  00000+0  42814-3 0  9994
2 42988  97.4338 209.4353 0001009  94.4308 265.7050 15.32803097467810
SKYSAT-C9               
1 42989U 17068C   26073.32954043  .00018542  00000+0  48014-3 0  9991
2 42989  97.4263 209.5395 0009898 117.3388 242.8866 15.39055145468151
SKYSAT-C8               
1 42990U 17068D   26073.34504515  .00014552  00000+0  43190-3 0  9997
2 42990  97.4353 208.9335 0001244  95.4723 264.6662 15.34907311467753
SKYSAT-C7               
1 42991U 17068E   26073.33528006  .00015266  00000+0  45328-3 0  9996
2 42991  97.4368 209.9068 0007286  89.7280 270.4798 15.34859060467819
SKYSAT-C6               
1 42992U 17068F   26073.33836253  .00013646  00000+0  43530-3 0  9996
2 42992  97.4400 210.1814 0003746 116.9689 243.1936 15.32621955467788
CARTOSAT-2F             
1 43111U 18004A   26073.62784177  .00009213  00000+0  43914-3 0  9991
2 43111  97.4157 134.6990 0001402 184.0779 176.0444 15.19324263452979
