[{"OBJECT_NAME":"PATHFINDER 1","OBJECT_ID":"2016-059E","EPOCH":"2026-03-14T13:43:03.098496","MEAN_MOTION":14.67528729,"ECCENTRICITY":0.00292966,"INCLINATION":97.8179,"RA_OF_ASC_NODE":77.1237,"ARG_OF_PERICENTER":145.5627,"MEAN_ANOMALY":214.7485,"EPHEMERIS_TYPE":0,"CLASSIFICATION_TYPE":"U","NORAD_CAT_ID":41787,"ELEMENT_SET_NO":999,"REV_AT_EPOCH":50583,"BSTAR":0.00017620071,"MEAN_MOTION_DOT":9.59e-6,"MEAN_MOTION_DDOT":0},{"OBJECT_NAME":"SCATSAT 1","OBJECT_ID":"2016-059H","EPOCH":"2026-03-14T14:12:05.110848","MEAN_MOTION":14.79282153,"ECCENTRICITY":0.00547163,"INCLINATION":98.1295,"RA_OF_ASC_NODE":136.3574,"ARG_OF_PERICENTER":191.5975,"MEAN_ANOMALY":168.3979,"EPHEMERIS_TYPE":0,"CLASSIFICATION_TYPE":"U","NORAD_CAT_ID":41790,"ELEMENT_SET_NO":999,"REV_AT_EPOCH":8760,"BSTAR":0.00023873428,"MEAN_MOTION_DOT":1.763e-5,"MEAN_MOTION_DDOT":0},{"OBJECT_NAME":"GOKTURK 1A","OBJECT_ID":"2016-073A","EPOCH":"2026-03-14T15:26:18.811392","MEAN_MOTION":14.62754303,"ECCENTRICITY":0.00013272,"INCLINATION":98.1356,"RA_OF_ASC_NODE":329.7464,"ARG_OF_PERICENTER":78.273,"MEAN_ANOMALY":281.8621,"EPHEMERIS_TYPE":0,"CLASSIFICATION_TYPE":"U","NORAD_CAT_ID":41875,"ELEMENT_SET_NO":999,"REV_AT_EPOCH":49500,"BSTAR":5.8525435e-5,"MEAN_MOTION_DOT":2.52e-6,"MEAN_MOTION_DDOT":0},{"OBJECT_NAME":"RESOURCESAT-2A","OBJECT_ID":"2016-074A","EPOCH":"2026-03-14T14:49:15.183840","MEAN_MOTION":14.21603628,"ECCENTRICITY":0.00022544,"INCLINATION":98.7594,"RA_OF_ASC_NODE":147.8718,"ARG_OF_PERICENTER":24.4736,"MEAN_ANOMALY":335.6548,"EPHEMERIS_TYPE":0,"CLASSIFICATION_TYPE":"U","NORAD_CAT_ID":41877,"ELEMENT_SET_NO":999,"REV_AT_EPOCH":48086,"BSTAR":0.00021782911,"MEAN_MOTION_DOT":4.33e-6,"MEAN_MOTION_DDOT":0},{"OBJECT_NAME":"CARTOSAT-2D","OBJECT_ID":"2017-008A","EPOCH":"2026-03-12T20:47:41.284320","MEAN_MOTION":15.19280641,"ECCENTRICITY":0.00045114,"INCLINATION":97.4226,"RA_OF_ASC_NODE":132.9125,"ARG_OF_PERICENTER":206.0706,"MEAN_ANOMALY":154.0302,"EPHEMERIS_TYPE":0,"CLASSIFICATION_TYPE":"U","NORAD_CAT_ID":41948,"ELEMENT_SET_NO":999,"REV_AT_EPOCH":50295,"BSTAR":2.00802e-6,"MEAN_MOTION_DOT":-2.5e-7,"MEAN_MOTION_DDOT":0},{"OBJECT_NAME":"SENTINEL-2B","OBJECT_ID":"2017-013A","EPOCH":"2026-03-14T14:12:36.696096","MEAN_MOTION":14.30823235,"ECCENTRICITY":0.00011551,"INCLINATION":98.5647,"RA_OF_ASC_NODE":149.7149,"ARG_OF_PERICENTER":94.6894,"MEAN_ANOMALY":265.442,"EPHEMERIS_TYPE":0,"CLASSIFICATION_TYPE":"U","NORAD_CAT_ID":42063,"ELEMENT_SET_NO":999,"REV_AT_EPOCH":47111,"BSTAR":0.00019037151,"MEAN_MOTION_DOT":4.55e-6,"MEAN_MOTION_DDOT":0},{"OBJECT_NAME":"CARTOSAT-2E","OBJECT_ID":"2017-036C","EPOCH":"2026-03-14T01:39:23.888736","MEAN_MOTION":15.19224887,"ECCENTRICITY":0.00025802,"INCLINATION":97.4397,"RA_OF_ASC_NODE":134.3841,"ARG_OF_PERICENTER":284.3598,"MEAN_ANOMALY":75.7351,"EPHEMERIS_TYPE":0,"CLASSIFICATION_TYPE":"U","NORAD_CAT_ID":42767,"ELEMENT_SET_NO":999,"REV_AT_EPOCH":48370,"BSTAR":-9.746139e-6,"MEAN_MOTION_DOT":-2.72e-6,"MEAN_MOTION_DDOT":0},{"OBJECT_NAME":"FORMOSAT-5","OBJECT_ID":"2017-049A","EPOCH":"2026-03-14T15:19:02.714304","MEAN_MOTION":14.50824529,"ECCENTRICITY":0.0011407,"INCLINATION":98.2304,"RA_OF_ASC_NODE":151.0389,"ARG_OF_PERICENTER":22.0828,"MEAN_ANOMALY":338.0856,"EPHEMERIS_TYPE":0,"CLASSIFICATION_TYPE":"U","NORAD_CAT_ID":42920,"ELEMENT_SET_NO":999,"REV_AT_EPOCH":45296,"BSTAR":6.8036649e-5,"MEAN_MOTION_DOT":2.25e-6,"MEAN_MOTION_DDOT":0},{"OBJECT_NAME":"SENTINEL-5P","OBJECT_ID":"2017-064A","EPOCH":"2026-03-14T12:55:35.800320","MEAN_MOTION":14.195006,"ECCENTRICITY":0.00010791,"INCLINATION":98.7887,"RA_OF_ASC_NODE":16.3601,"ARG_OF_PERICENTER":92.8914,"MEAN_ANOMALY":267.2385,"EPHEMERIS_TYPE":0,"CLASSIFICATION_TYPE":"U","NORAD_CAT_ID":42969,"ELEMENT_SET_NO":999,"REV_AT_EPOCH":43613,"BSTAR":6.3032244e-5,"MEAN_MOTION_DOT":8.9e-7,"MEAN_MOTION_DDOT":0},{"OBJECT_NAME":"SKYSAT-C11","OBJECT_ID":"2017-068A","EPOCH":"2026-03-14T11:40:00.634944","MEAN_MOTION":15.52752003,"ECCENTRICITY":4.415e-5,"INCLINATION":97.4205,"RA_OF_ASC_NODE":218.6309,"ARG_OF_PERICENTER":79.5811,"MEAN_ANOMALY":280.5492,"EPHEMERIS_TYPE":0,"CLASSIFICATION_TYPE":"U","NORAD_CAT_ID":42987,"ELEMENT_SET_NO":999,"REV_AT_EPOCH":46852,"BSTAR":0.00067614727,"MEAN_MOTION_DOT":0.00041844,"MEAN_MOTION_DDOT":0},{"OBJECT_NAME":"SKYSAT-C10","OBJECT_ID":"2017-068B","EPOCH":"2026-03-14T07:14:30.800832","MEAN_MOTION":15.32803097,"ECCENTRICITY":0.00010091,"INCLINATION":97.4338,"RA_OF_ASC_NODE":209.4353,"ARG_OF_PERICENTER":94.4308,"MEAN_ANOMALY":265.705,"EPHEMERIS_TYPE":0,"CLASSIFICATION_TYPE":"U","NORAD_CAT_ID":42988,"ELEMENT_SET_NO":999,"REV_AT_EPOCH":46781,"BSTAR":0.00042814442,"MEAN_MOTION_DOT":0.00013494,"MEAN_MOTION_DDOT":0},{"OBJECT_NAME":"SKYSAT-C9","OBJECT_ID":"2017-068C","EPOCH":"2026-03-14T07:54:32.293152","MEAN_MOTION":15.39055145,"ECCENTRICITY":0.00098983,"INCLINATION":97.4263,"RA_OF_ASC_NODE":209.5395,"ARG_OF_PERICENTER":117.3388,"MEAN_ANOMALY":242.8866,"EPHEMERIS_TYPE":0,"CLASSIFICATION_TYPE":"U","NORAD_CAT_ID":42989,"ELEMENT_SET_NO":999,"REV_AT_EPOCH":46815,"BSTAR":0.00048014201,"MEAN_MOTION_DOT":0.00018542,"MEAN_MOTION_DDOT":0},{"OBJECT_NAME":"SKYSAT-C8","OBJECT_ID":"2017-068D","EPOCH":"2026-03-14T08:16:51.900960","MEAN_MOTION":15.34907311,"ECCENTRICITY":0.00012446,"INCLINATION":97.4353,"RA_OF_ASC_NODE":208.9335,"ARG_OF_PERICENTER":95.4723,"MEAN_ANOMALY":264.6662,"EPHEMERIS_TYPE":0,"CLASSIFICATION_TYPE":"U","NORAD_CAT_ID":42990,"ELEMENT_SET_NO":999,"REV_AT_EPOCH":46775,"BSTAR":0.000431897,"MEAN_MOTION_DOT":0.00014552,"MEAN_MOTION_DDOT":0},{"OBJECT_NAME":"SKYSAT-C7","OBJECT_ID":"2017-068E","EPOCH":"2026-03-14T08:02:48.197184","MEAN_MOTION":15.3485906,"ECCENTRICITY":0.00072868,"INCLINATION":97.4368,"RA_OF_ASC_NODE":209.9068,"ARG_OF_PERICENTER":89.728,"MEAN_ANOMALY":270.4798,"EPHEMERIS_TYPE":0,"CLASSIFICATION_TYPE":"U","NORAD_CAT_ID":42991,"ELEMENT_SET_NO":999,"REV_AT_EPOCH":46781,"BSTAR":0.00045328338,"MEAN_MOTION_DOT":0.00015266,"MEAN_MOTION_DDOT":0},{"OBJECT_NAME":"SKYSAT-C6","OBJECT_ID":"2017-068F","EPOCH":"2026-03-14T08:07:14.522592","MEAN_MOTION":15.32621955,"ECCENTRICITY":0.00037466,"INCLINATION":97.44,"RA_OF_ASC_NODE":210.1814,"ARG_OF_PERICENTER":116.9689,"MEAN_ANOMALY":243.1936,"EPHEMERIS_TYPE":0,"CLASSIFICATION_TYPE":"U","NORAD_CAT_ID":42992,"ELEMENT_SET_NO":999,"REV_AT_EPOCH":46778,"BSTAR":0.00043529856,"MEAN_MOTION_DOT":0.00013646,"MEAN_MOTION_DDOT":0},{"OBJECT_NAME":"CARTOSAT-2F","OBJECT_ID":"2018-004A","EPOCH":"2026-03-14T15:04:05.528928","MEAN_MOTION":15.19324263,"ECCENTRICITY":0.00014028,"INCLINATION":97.4157,"RA_OF_ASC_NODE":134.699,"ARG_OF_PERICENTER":184.0779,"MEAN_ANOMALY":176.0444,"EPHEMERIS_TYPE":0,"CLASSIFICATION_TYPE":"U","NORAD_CAT_ID":43111,"ELEMENT_SET_NO":999,"REV_AT_EPOCH":45297,"BSTAR":0.00043913532,"MEAN_MOTION_DOT":9.213e-5,"MEAN_MOTION_DDOT":0}]
